{
  "updatedAt": "2026-03-20T16:26:01.420Z",
  "entries": {
    "randev-52898": {
      "fetchedAt": "2026-03-20T16:26:01.420Z",
      "fleetEntry": {
        "id": "randev-52898",
        "name": "RANDEV",
        "englishName": "RANDEV",
        "domesticName": "RANDEV",
        "color": "#f78fb3",
        "norad": "52898",
        "orbitClass": "leo",
        "orbitLabel": "LEO SSO",
        "missionType": "technology",
        "missionLabel": "기술실증/학술",
        "operationalStatus": "비현역",
        "objectId": "2022-065E",
        "launchDate": "2022-06-21",
        "sourceDate": "2026-03-20",
        "sourceLabel": "Space-Track cached GP",
        "omm": {
          "CCSDS_OMM_VERS": "3.0",
          "COMMENT": "GENERATED VIA SPACE-TRACK.ORG API",
          "CREATION_DATE": "2026-03-20T14:36:41",
          "ORIGINATOR": "18 SPCS",
          "OBJECT_NAME": "RANDEV",
          "OBJECT_ID": "2022-065E",
          "CENTER_NAME": "EARTH",
          "REF_FRAME": "TEME",
          "TIME_SYSTEM": "UTC",
          "MEAN_ELEMENT_THEORY": "SGP4",
          "EPOCH": "2026-03-20T09:35:14.563104",
          "MEAN_MOTION": 14.63519311,
          "ECCENTRICITY": 0.0006891,
          "INCLINATION": 98.2052,
          "RA_OF_ASC_NODE": 223.9609,
          "ARG_OF_PERICENTER": 309.8491,
          "MEAN_ANOMALY": 50.2104,
          "EPHEMERIS_TYPE": 0,
          "CLASSIFICATION_TYPE": "U",
          "NORAD_CAT_ID": 52898,
          "ELEMENT_SET_NO": 999,
          "REV_AT_EPOCH": 19826,
          "BSTAR": 0.00015399,
          "MEAN_MOTION_DOT": 0.0000075,
          "MEAN_MOTION_DDOT": 0,
          "SEMIMAJOR_AXIS": "7059.970",
          "PERIOD": "98.393",
          "APOAPSIS": "686.700",
          "PERIAPSIS": "676.970",
          "OBJECT_TYPE": "PAYLOAD",
          "RCS_SIZE": "SMALL",
          "COUNTRY_CODE": "SKOR",
          "LAUNCH_DATE": "2022-06-21",
          "SITE": "NSC",
          "DECAY_DATE": null,
          "FILE": "5093490",
          "GP_ID": "316573042",
          "TLE_LINE0": "0 RANDEV",
          "TLE_LINE1": "1 52898U 22065E   26079.39947411  .00000750  00000-0  15399-3 0  9991",
          "TLE_LINE2": "2 52898  98.2052 223.9609 0006891 309.8491  50.2104 14.63519311198261"
        }
      }
    },
    "dummy-cubesat-52983": {
      "fetchedAt": "2026-03-20T16:26:01.420Z",
      "fleetEntry": {
        "id": "dummy-cubesat-52983",
        "name": "DUMMY CUBESAT",
        "englishName": "DUMMY CUBESAT",
        "domesticName": "DUMMY CUBESAT",
        "color": "#ff9059",
        "norad": "52983",
        "orbitClass": "leo",
        "orbitLabel": "LEO SSO",
        "missionType": "technology",
        "missionLabel": "기술실증/학술",
        "operationalStatus": "비현역",
        "objectId": "2022-065H",
        "launchDate": "2022-06-21",
        "sourceDate": "2026-03-20",
        "sourceLabel": "Space-Track cached GP",
        "omm": {
          "CCSDS_OMM_VERS": "3.0",
          "COMMENT": "GENERATED VIA SPACE-TRACK.ORG API",
          "CREATION_DATE": "2026-03-20T14:36:41",
          "ORIGINATOR": "18 SPCS",
          "OBJECT_NAME": "DUMMY CUBESAT",
          "OBJECT_ID": "2022-065H",
          "CENTER_NAME": "EARTH",
          "REF_FRAME": "TEME",
          "TIME_SYSTEM": "UTC",
          "MEAN_ELEMENT_THEORY": "SGP4",
          "EPOCH": "2026-03-20T09:13:45.855264",
          "MEAN_MOTION": 14.60518098,
          "ECCENTRICITY": 0.0006563,
          "INCLINATION": 98.2125,
          "RA_OF_ASC_NODE": 221.1927,
          "ARG_OF_PERICENTER": 306.4662,
          "MEAN_ANOMALY": 53.5933,
          "EPHEMERIS_TYPE": 0,
          "CLASSIFICATION_TYPE": "U",
          "NORAD_CAT_ID": 52983,
          "ELEMENT_SET_NO": 999,
          "REV_AT_EPOCH": 19718,
          "BSTAR": 0.000091666,
          "MEAN_MOTION_DOT": 0.00000398,
          "MEAN_MOTION_DDOT": 0,
          "SEMIMAJOR_AXIS": "7069.639",
          "PERIOD": "98.595",
          "APOAPSIS": "696.143",
          "PERIAPSIS": "686.864",
          "OBJECT_TYPE": "PAYLOAD",
          "RCS_SIZE": "SMALL",
          "COUNTRY_CODE": "SKOR",
          "LAUNCH_DATE": "2022-06-21",
          "SITE": "NSC",
          "DECAY_DATE": null,
          "FILE": "5093490",
          "GP_ID": "316573552",
          "TLE_LINE0": "0 DUMMY CUBESAT",
          "TLE_LINE1": "1 52983U 22065H   26079.38455851  .00000398  00000-0  91666-4 0  9997",
          "TLE_LINE2": "2 52983  98.2125 221.1927 0006563 306.4662  53.5933 14.60518098197183"
        }
      }
    },
    "miman-52900": {
      "fetchedAt": "2026-03-20T16:26:01.420Z",
      "fleetEntry": {
        "id": "miman-52900",
        "name": "MIMAN",
        "englishName": "MIMAN",
        "domesticName": "MIMAN",
        "color": "#8bd0ff",
        "norad": "52900",
        "orbitClass": "leo",
        "orbitLabel": "LEO SSO",
        "missionType": "technology",
        "missionLabel": "기술실증/학술",
        "operationalStatus": "비현역",
        "objectId": "2022-065G",
        "launchDate": "2022-06-21",
        "sourceDate": "2026-03-20",
        "sourceLabel": "Space-Track cached GP",
        "omm": {
          "CCSDS_OMM_VERS": "3.0",
          "COMMENT": "GENERATED VIA SPACE-TRACK.ORG API",
          "CREATION_DATE": "2026-03-20T14:36:41",
          "ORIGINATOR": "18 SPCS",
          "OBJECT_NAME": "MIMAN",
          "OBJECT_ID": "2022-065G",
          "CENTER_NAME": "EARTH",
          "REF_FRAME": "TEME",
          "TIME_SYSTEM": "UTC",
          "MEAN_ELEMENT_THEORY": "SGP4",
          "EPOCH": "2026-03-20T08:05:32.338176",
          "MEAN_MOTION": 14.61727568,
          "ECCENTRICITY": 0.0006555,
          "INCLINATION": 98.2104,
          "RA_OF_ASC_NODE": 222.3404,
          "ARG_OF_PERICENTER": 309.4828,
          "MEAN_ANOMALY": 50.5793,
          "EPHEMERIS_TYPE": 0,
          "CLASSIFICATION_TYPE": "U",
          "NORAD_CAT_ID": 52900,
          "ELEMENT_SET_NO": 999,
          "REV_AT_EPOCH": 19746,
          "BSTAR": 0.00012839,
          "MEAN_MOTION_DOT": 0.00000593,
          "MEAN_MOTION_DDOT": 0,
          "SEMIMAJOR_AXIS": "7065.738",
          "PERIOD": "98.514",
          "APOAPSIS": "692.235",
          "PERIAPSIS": "682.972",
          "OBJECT_TYPE": "PAYLOAD",
          "RCS_SIZE": "SMALL",
          "COUNTRY_CODE": "SKOR",
          "LAUNCH_DATE": "2022-06-21",
          "SITE": "NSC",
          "DECAY_DATE": null,
          "FILE": "5093490",
          "GP_ID": "316573043",
          "TLE_LINE0": "0 MIMAN",
          "TLE_LINE1": "1 52900U 22065G   26079.33717984  .00000593  00000-0  12839-3 0  9990",
          "TLE_LINE2": "2 52900  98.2104 222.3404 0006555 309.4828  50.5793 14.61727568197467"
        }
      }
    },
    "snuglite-ii-52899": {
      "fetchedAt": "2026-03-20T16:26:01.420Z",
      "fleetEntry": {
        "id": "snuglite-ii-52899",
        "name": "SNUGLITE-II",
        "englishName": "SNUGLITE-II",
        "domesticName": "SNUGLITE-II",
        "color": "#9bdeac",
        "norad": "52899",
        "orbitClass": "leo",
        "orbitLabel": "LEO SSO",
        "missionType": "technology",
        "missionLabel": "기술실증/학술",
        "operationalStatus": "비현역",
        "objectId": "2022-065F",
        "launchDate": "2022-06-21",
        "sourceDate": "2026-03-20",
        "sourceLabel": "Space-Track cached GP",
        "omm": {
          "CCSDS_OMM_VERS": "3.0",
          "COMMENT": "GENERATED VIA SPACE-TRACK.ORG API",
          "CREATION_DATE": "2026-03-20T14:36:41",
          "ORIGINATOR": "18 SPCS",
          "OBJECT_NAME": "SNUGLITE-II",
          "OBJECT_ID": "2022-065F",
          "CENTER_NAME": "EARTH",
          "REF_FRAME": "TEME",
          "TIME_SYSTEM": "UTC",
          "MEAN_ELEMENT_THEORY": "SGP4",
          "EPOCH": "2026-03-20T09:37:28.738848",
          "MEAN_MOTION": 14.64157122,
          "ECCENTRICITY": 0.0006393,
          "INCLINATION": 98.2052,
          "RA_OF_ASC_NODE": 224.4647,
          "ARG_OF_PERICENTER": 307.4817,
          "MEAN_ANOMALY": 52.5804,
          "EPHEMERIS_TYPE": 0,
          "CLASSIFICATION_TYPE": "U",
          "NORAD_CAT_ID": 52899,
          "ELEMENT_SET_NO": 999,
          "REV_AT_EPOCH": 19800,
          "BSTAR": 0.00019462,
          "MEAN_MOTION_DOT": 0.00000975,
          "MEAN_MOTION_DDOT": 0,
          "SEMIMAJOR_AXIS": "7057.920",
          "PERIOD": "98.350",
          "APOAPSIS": "684.297",
          "PERIAPSIS": "675.273",
          "OBJECT_TYPE": "PAYLOAD",
          "RCS_SIZE": "SMALL",
          "COUNTRY_CODE": "SKOR",
          "LAUNCH_DATE": "2022-06-21",
          "SITE": "NSC",
          "DECAY_DATE": null,
          "FILE": "5093490",
          "GP_ID": "316573544",
          "TLE_LINE0": "0 SNUGLITE-II",
          "TLE_LINE1": "1 52899U 22065F   26079.40102707  .00000975  00000-0  19462-3 0  9999",
          "TLE_LINE2": "2 52899  98.2052 224.4647 0006393 307.4817  52.5804 14.64157122198006"
        }
      }
    }
  }
}